[Satellite]
VERSION=1.1
NAME=SES-2
NICKNAME=SES-2
TLE1=1 37809U 11049A   17186.19979750 -.00000200  00000-0  00000-0 0  9995
TLE2=2 37809   0.0387 298.6065 0002496 142.0873 187.6057  1.00269256 21243
